CCSDS_OMM_VERS,COMMENT,CREATION_DATE,ORIGINATOR,OBJECT_NAME,OBJECT_ID,CENTER_NAME,REF_FRAME,TIME_SYSTEM,MEAN_ELEMENT_THEORY,EPOCH,MEAN_MOTION,ECCENTRICITY,INCLINATION,RA_OF_ASC_NODE,ARG_OF_PERICENTER,MEAN_ANOMALY,EPHEMERIS_TYPE,CLASSIFICATION_TYPE,NORAD_CAT_ID,ELEMENT_SET_NO,REV_AT_EPOCH,BSTAR,MEAN_MOTION_DOT,MEAN_MOTION_DDOT,SEMIMAJOR_AXIS,PERIOD,APOAPSIS,PERIAPSIS,OBJECT_TYPE,RCS_SIZE,COUNTRY_CODE,LAUNCH_DATE,SITE,DECAY_DATE,FILE,GP_ID,TLE_LINE0,TLE_LINE1,TLE_LINE2,NORAD_KEY,JCAT,DeepCat,Satcat,Piece,Active,Type,Name,LDate,Parent,Owner,State,SDate,ExpandedStatus,DDate,ODate,Period,Perigee,PF,Apogee,AF,Inc,IF,OpOrbit,SATCAT_KEY
3.0,GENERATED VIA SPACE-TRACK.ORG API,2026-05-06T14:46:56,18 SPCS,QUETZSAT 1,2011-054A,EARTH,TEME,UTC,SGP4,2026-05-06T11:03:44.550720,1.00270936,0.000321,0.0321,55.018,12.9249,245.3207,0,U,37826,999,4945,0.00000000000000,-0.00000234,0.0000000000000,42164.97,1436.109,35800.37,35773.3,PAYLOAD,LARGE,MEX,2011-09-29,TTMTR,,5177120,322296314,0 QUETZSAT 1,1 37826U 11054A   26126.46093230 -.00000234  00000-0  00000+0 0  9990,2 37826   0.0321  55.0180 0003210  12.9249 245.3207  1.00270936 49459,37826,S37826,-,37826,2011-054A,P,P,QuetzSat-1,2011 Sep 29,S37827,QUETZ/SESE,MX,2011 Sep 30 0345,In Earth orbit,-,2026 May  5 ,    1436.103 ,   35773, ,   35800, ,  0.03 , ,GEO/S,37826
3.0,GENERATED VIA SPACE-TRACK.ORG API,2026-05-06T14:46:56,18 SPCS,SES 14,2018-012B,EARTH,TEME,UTC,SGP4,2026-05-06T11:12:13.737024,1.00268663,0.000106,0.0321,44.8706,3.7746,296.2477,0,U,43175,999,660,0.00000000000000,-0.00000271,0.0000000000000,42165.607,1436.142,35791.942,35783.003,PAYLOAD,LARGE,SES,2018-01-25,FRGUI,,5177192,322298771,0 SES 14,1 43175U 18012B   26126.46682566 -.00000271  00000-0  00000+0 0  9992,2 43175   0.0321  44.8706 0001060   3.7746 296.2477  1.00268663  6602,43175,S43175,-,43175,2018-012B,P,P,SES-14,2018 Jan 25,S43177,SESBR,BR,2018 Jan 25 2247,In Earth orbit,-,2026 May  5 ,    1436.108 ,   35781, ,   35791, ,  0.03 , ,GEO/S,43175
3.0,GENERATED VIA SPACE-TRACK.ORG API,2026-05-06T14:46:56,18 SPCS,DIRECTV 15,2015-026A,EARTH,TEME,UTC,SGP4,2026-05-06T10:56:22.758144,1.00269025,7.8e-06,0.0339,90.6689,12.3159,182.557,0,U,40663,999,4004,0.00000000000000,-0.00000094,0.0000000000000,42165.506,1436.136,35787.7,35787.042,PAYLOAD,LARGE,US,2015-05-27,FRGUI,,5177161,322297359,0 DIRECTV 15,1 40663U 15026A   26126.45581896 -.00000094  00000-0  00000+0 0  9999,2 40663   0.0339  90.6689 0000078  12.3159 182.5570  1.00269025 40041,40663,S40663,-,40663,2015-026A,P,P,T15,2015 May 27,S40666,DTVT,US,2015 May 27 2143,In Earth orbit,-,2026 May  5 ,    1436.117 ,   35786, ,   35787, ,  0.01 , ,GEO/S,40663
3.0,GENERATED VIA SPACE-TRACK.ORG API,2026-05-06T14:46:56,18 SPCS,JCSAT 12,2009-044A,EARTH,TEME,UTC,SGP4,2026-05-06T12:03:23.828832,1.00271858,6.39e-05,0.041,83.9,273.0236,180.3513,0,U,35755,999,6119,0.00000000000000,-0.00000320,0.0000000000000,42164.711,1436.096,35789.271,35783.882,PAYLOAD,LARGE,JPN,2009-08-21,FRGUI,,5177084,322295816,0 JCSAT 12,1 35755U 09044A   26126.50235913 -.00000320  00000-0  00000+0 0  9992,2 35755   0.0410  83.9000 0000639 273.0236 180.3513  1.00271858 61193,35755,S35755,-,35755,2009-044A,P,P,JCSAT RA,2009 Aug 21,S35758,SESINTU,US,2009 Aug 21 2235,In Earth orbit,-,2026 May  5 ,    1436.087 ,   35783, ,   35789, ,  0.04 , ,GEO/S,35755
3.0,GENERATED VIA SPACE-TRACK.ORG API,2026-05-06T14:46:56,18 SPCS,EUTE 16A (EUTE W3C),2011-057A,EARTH,TEME,UTC,SGP4,2026-05-06T08:28:38.798112,1.00273375,0.0005813,0.0496,345.4617,67.0275,314.9091,0,U,37836,999,691,0.00000000000000,0.00000112,0.0000000000000,42164.286,1436.074,35810.661,35761.641,PAYLOAD,LARGE,EUTE,2011-10-07,XSC,,5177121,322296820,0 EUTE 16A (EUTE W3C),1 37836U 11057A   26126.35322683  .00000112  00000-0  00000+0 0  9993,2 37836   0.0496 345.4617 0005813  67.0275 314.9091  1.00273375  6913,37836,S37836,-,37836,2011-057A,P,P,EUTELSAT 16A,2011 Oct  7,S37837,EUTSA,F,2011 Oct  7 0846,In Earth orbit,-,2026 May  4 ,    1436.066 ,   35761, ,   35810, ,  0.06 , ,GEO/S,37836
3.0,GENERATED VIA SPACE-TRACK.ORG API,2026-05-06T14:56:52,18 SPCS,ECHOSTAR 10,2006-003A,EARTH,TEME,UTC,SGP4,2026-05-06T10:54:15.459840,1.00272286,0.0002399,0.0515,71.2283,300.2971,266.1755,0,U,28935,999,7404,0.00000000000000,-0.00000048,0.0000000000000,42164.592,1436.09,35796.572,35776.341,PAYLOAD,LARGE,US,2006-02-15,SEAL,,5177642,322309027,0 ECHOSTAR 10,1 28935U 06003A   26126.45434560 -.00000048  00000-0  00000+0 0  9996,2 28935   0.0515  71.2283 0002399 300.2971 266.1755  1.00272286 74043,28935,S28935,-,28935,2006-003A,P,P,Echostar X,2006 Feb 15,S28936,DISHE,US,2006 Feb 16 0037,In Earth orbit,-,2026 May  5 ,    1436.091 ,   35776, ,   35796, ,  0.05 , ,GEO/S,28935
3.0,GENERATED VIA SPACE-TRACK.ORG API,2026-05-06T14:46:56,18 SPCS,ASTRA 5B,2014-011B,EARTH,TEME,UTC,SGP4,2026-05-06T11:32:19.309920,1.00274758,0.0002604,0.0521,324.1253,71.2964,25.5153,0,U,39617,999,4424,0.00000000000000,0.00000145,0.0000000000000,42163.899,1436.054,35796.743,35774.784,PAYLOAD,LARGE,SES,2014-03-22,FRGUI,,5177142,322297125,0 ASTRA 5B,1 39617U 14011B   26126.48077905  .00000145  00000-0  00000+0 0  9999,2 39617   0.0521 324.1253 0002604  71.2964  25.5153  1.00274758 44246,39617,S39617,-,39617,2014-011B,P,P      O,Astra 3C,2014 Mar 22,S39619,SESSA,L,2014 Mar 22 2231,In Earth orbit,-,2026 May  5 ,    1436.062 ,   35774, ,   35797, ,  0.05 , ,GEO/S,39617
3.0,GENERATED VIA SPACE-TRACK.ORG API,2026-05-06T14:46:56,18 SPCS,ES'HAIL 1,2013-044A,EARTH,TEME,UTC,SGP4,2026-05-06T11:32:56.752224,1.00269315,0.0002447,0.0522,354.3697,44.9486,23.7839,0,U,39233,999,4620,0.00000000000000,0.00000151,0.0000000000000,42165.424,1436.132,35797.607,35776.972,PAYLOAD,LARGE,QAT,2013-08-29,FRGUI,,5177349,322297550,0 ES'HAIL 1,1 39233U 13044A   26126.48121241  .00000151  00000-0  00000+0 0  9998,2 39233   0.0522 354.3697 0002447  44.9486  23.7839  1.00269315 46201,39233,S39233,-,39233,2013-044A,P,P,Es'hail-1,2013 Aug 29,S39236,ESHAIL,QA,2013 Aug 29 2057,In Earth orbit,-,2026 May  5 ,    1436.011 ,   35774, ,   35795, ,  0.05 , ,GEO/S,39233
3.0,GENERATED VIA SPACE-TRACK.ORG API,2026-05-06T14:46:56,18 SPCS,HISPASAT 30W-5,2010-070A,EARTH,TEME,UTC,SGP4,2026-05-06T09:34:30.799776,1.00270666,0.0004681,0.0578,95.7424,335.0051,267.1732,0,U,37264,999,5276,0.00000000000000,-0.00000208,0.0000000000000,42165.046,1436.113,35806.648,35767.173,PAYLOAD,LARGE,SPN,2010-12-29,FRGUI,,5177110,322296689,0 HISPASAT 30W-5,1 37264U 10070A   26126.39896759 -.00000208  00000-0  00000+0 0  9993,2 37264   0.0578  95.7424 0004681 335.0051 267.1732  1.00270666 52767,37264,S37264,-,37264,2010-070A,P,P,Hispasat 30W-5,2010 Dec 29,S37267,HISP,E,2010 Dec 29 2154,In Earth orbit,-,2026 May  5 ,    1436.109 ,   35767, ,   35806, ,  0.06 , ,GEO/S,37264
3.0,GENERATED VIA SPACE-TRACK.ORG API,2026-05-06T14:46:56,18 SPCS,EUTE KA SAT 9A (KA SAT),2010-069A,EARTH,TEME,UTC,SGP4,2026-05-06T08:36:38.744928,1.00274533,0.0004138,0.0621,4.2788,130.4787,227.64,0,U,37258,999,4358,0.00000000000000,0.00000070,0.0000000000000,42163.962,1436.058,35803.274,35768.379,PAYLOAD,LARGE,EUTE,2010-12-26,TTMTR,,5177110,322296189,0 EUTE KA SAT 9A (KA SAT),1 37258U 10069A   26126.35878177  .00000070  00000-0  00000+0 0  9990,2 37258   0.0621   4.2788 0004138 130.4787 227.6400  1.00274533 43587,37258,S37258,-,37258,2010-069A,P,P,KA-SAT,2010 Dec 26,S37259,VIA,US,2010 Dec 27 0703,In Earth orbit,-,2026 May  5 ,    1436.104 ,   35770, ,   35803, ,  0.06 , ,GEO/S,37258
3.0,GENERATED VIA SPACE-TRACK.ORG API,2026-05-06T14:46:56,18 SPCS,SES 2,2011-049A,EARTH,TEME,UTC,SGP4,2026-05-06T11:00:52.327008,1.00271749,0.0003047,0.0638,89.7413,319.5431,253.2621,0,U,37809,999,5354,0.00000000000000,-0.00000188,0.0000000000000,42164.742,1436.097,35799.455,35773.759,PAYLOAD,LARGE,SES,2011-09-21,FRGUI,,5177120,322296811,0 SES 2,1 37809U 11049A   26126.45893897 -.00000188  00000-0  00000+0 0  9999,2 37809   0.0638  89.7413 0003047 319.5431 253.2621  1.00271749 53547,37809,S37809,-,37809,2011-049A,P,P,SES-2,2011 Sep 21,S37812,SESSAP/SESE,US,2011 Sep 21 2213,In Earth orbit,-,2026 May  5 ,    1436.093 ,   35773, ,   35799, ,  0.06 , ,GEO/S,37809
3.0,GENERATED VIA SPACE-TRACK.ORG API,2026-05-06T14:46:56,18 SPCS,AMAZONAS 4A,2014-011A,EARTH,TEME,UTC,SGP4,2026-05-06T11:04:36.967008,1.00269922,0.000293,0.0672,216.9708,223.0696,236.4417,0,U,39616,999,4429,0.00000000000000,-0.00000244,0.0000000000000,42165.254,1436.124,35799.474,35774.765,PAYLOAD,LARGE,BRAZ,2014-03-22,FRGUI,,5177142,322297624,0 AMAZONAS 4A,1 39616U 14011A   26126.46153897 -.00000244  00000-0  00000+0 0  9992,2 39616   0.0672 216.9708 0002930 223.0696 236.4417  1.00269922 44294,39616,S39616,-,39616,2014-011A,P,P,Hispasat 74W-1,2014 Mar 22,S39618,HISP,E,2014 Mar 22 2238,In Earth orbit,-,2026 May  4 ,    1436.105 ,   35774, ,   35799, ,  0.07 , ,GEO/S,39616
3.0,GENERATED VIA SPACE-TRACK.ORG API,2026-05-06T14:46:56,18 SPCS,SKYNET 5D,2012-075A,EARTH,TEME,UTC,SGP4,2026-05-06T11:40:48.497088,1.00271909,0.0003838,0.069,349.0561,60.5067,42.7342,0,U,39034,999,4874,0.00000000000000,0.00000107,0.0000000000000,42164.697,1436.095,35802.745,35770.379,PAYLOAD,LARGE,UK,2012-12-19,FRGUI,,5177135,322296500,0 SKYNET 5D,1 39034U 12075A   26126.48667242  .00000107  00000-0  00000+0 0  9997,2 39034   0.0690 349.0561 0003838  60.5067  42.7342  1.00271909 48744,39034,S39034,-,39034,2012-075A,P,P,Skynet 5D,2012 Dec 19,S39037,BABCK,UK,2012 Dec 19 2216,In Earth orbit,-,2026 May  5 ,    1436.102 ,   35770, ,   35802, ,  0.07 , ,GEO/S,39034
